{
  "type": "FeatureCollection",
  "name": "subscribers",
  "features": [
    {
      "type": "Feature",
      "id": "subscriber_2",
      "geometry": {
        "type": "Point",
        "coordinates": [
          69.71598,
          42.277244
        ]
      },
      "properties": {
        "subscriber_id": 2,
        "name": "Gasyr Energy",
        "latitude": 42.277244,
        "longitude": 69.71598,
        "coordinates": "42.277244, 69.715980",
        "tooltip": "Gasyr Energy | Координаты: 42.277244, 69.715980"
      }
    },
    {
      "type": "Feature",
      "id": "subscriber_4",
      "geometry": {
        "type": "Point",
        "coordinates": [
          69.695822,
          42.273474
        ]
      },
      "properties": {
        "subscriber_id": 4,
        "name": "АО \"3-Энергоорталык\"",
        "latitude": 42.273474,
        "longitude": 69.695822,
        "coordinates": "42.273474, 69.695822",
        "tooltip": "АО \"3-Энергоорталык\" | Координаты: 42.273474, 69.695822"
      }
    },
    {
      "type": "Feature",
      "id": "subscriber_9",
      "geometry": {
        "type": "Point",
        "coordinates": [
          69.578431,
          42.300536
        ]
      },
      "properties": {
        "subscriber_id": 9,
        "name": "АО \"Химфарм\"",
        "latitude": 42.300536,
        "longitude": 69.578431,
        "coordinates": "42.300536, 69.578431",
        "tooltip": "АО \"Химфарм\" | Координаты: 42.300536, 69.578431"
      }
    },
    {
      "type": "Feature",
      "id": "subscriber_7",
      "geometry": {
        "type": "Point",
        "coordinates": [
          69.597198,
          42.29188
        ]
      },
      "properties": {
        "subscriber_id": 7,
        "name": "АО \"Шымкентмай\"",
        "latitude": 42.29188,
        "longitude": 69.597198,
        "coordinates": "42.291880, 69.597198",
        "tooltip": "АО \"Шымкентмай\" | Координаты: 42.291880, 69.597198"
      }
    },
    {
      "type": "Feature",
      "id": "subscriber_21",
      "geometry": {
        "type": "Point",
        "coordinates": [
          69.66343,
          42.24817
        ]
      },
      "properties": {
        "subscriber_id": 21,
        "name": "КНС",
        "latitude": 42.24817,
        "longitude": 69.66343,
        "coordinates": "42.248170, 69.663430",
        "tooltip": "КНС | Координаты: 42.248170, 69.663430"
      }
    },
    {
      "type": "Feature",
      "id": "subscriber_3",
      "geometry": {
        "type": "Point",
        "coordinates": [
          69.717378,
          42.277597
        ]
      },
      "properties": {
        "subscriber_id": 3,
        "name": "КазЮгПром",
        "latitude": 42.277597,
        "longitude": 69.717378,
        "coordinates": "42.277597, 69.717378",
        "tooltip": "КазЮгПром | Координаты: 42.277597, 69.717378"
      }
    },
    {
      "type": "Feature",
      "id": "subscriber_17",
      "geometry": {
        "type": "Point",
        "coordinates": [
          69.671197,
          42.31825
        ]
      },
      "properties": {
        "subscriber_id": 17,
        "name": "ТОО \"Azala Textile\"",
        "latitude": 42.31825,
        "longitude": 69.671197,
        "coordinates": "42.318250, 69.671197",
        "tooltip": "ТОО \"Azala Textile\" | Координаты: 42.318250, 69.671197"
      }
    },
    {
      "type": "Feature",
      "id": "subscriber_14",
      "geometry": {
        "type": "Point",
        "coordinates": [
          69.717239,
          42.265469
        ]
      },
      "properties": {
        "subscriber_id": 14,
        "name": "ТОО \"Kazalpack\"",
        "latitude": 42.265469,
        "longitude": 69.717239,
        "coordinates": "42.265469, 69.717239",
        "tooltip": "ТОО \"Kazalpack\" | Координаты: 42.265469, 69.717239"
      }
    },
    {
      "type": "Feature",
      "id": "subscriber_8",
      "geometry": {
        "type": "Point",
        "coordinates": [
          69.713515,
          42.271536
        ]
      },
      "properties": {
        "subscriber_id": 8,
        "name": "ТОО \"Tau Product\"",
        "latitude": 42.271536,
        "longitude": 69.713515,
        "coordinates": "42.271536, 69.713515",
        "tooltip": "ТОО \"Tau Product\" | Координаты: 42.271536, 69.713515"
      }
    },
    {
      "type": "Feature",
      "id": "subscriber_19",
      "geometry": {
        "type": "Point",
        "coordinates": [
          69.669068,
          42.279563
        ]
      },
      "properties": {
        "subscriber_id": 19,
        "name": "ТОО \"Акбура 555\"",
        "latitude": 42.279563,
        "longitude": 69.669068,
        "coordinates": "42.279563, 69.669068",
        "tooltip": "ТОО \"Акбура 555\" | Координаты: 42.279563, 69.669068"
      }
    },
    {
      "type": "Feature",
      "id": "subscriber_11",
      "geometry": {
        "type": "Point",
        "coordinates": [
          69.622276,
          42.298103
        ]
      },
      "properties": {
        "subscriber_id": 11,
        "name": "ТОО \"Алтын Дан\"",
        "latitude": 42.298103,
        "longitude": 69.622276,
        "coordinates": "42.298103, 69.622276",
        "tooltip": "ТОО \"Алтын Дан\" | Координаты: 42.298103, 69.622276"
      }
    },
    {
      "type": "Feature",
      "id": "subscriber_18",
      "geometry": {
        "type": "Point",
        "coordinates": [
          69.720732,
          42.365672
        ]
      },
      "properties": {
        "subscriber_id": 18,
        "name": "ТОО \"Барыс 2007\"",
        "latitude": 42.365672,
        "longitude": 69.720732,
        "coordinates": "42.365672, 69.720732",
        "tooltip": "ТОО \"Барыс 2007\" | Координаты: 42.365672, 69.720732"
      }
    },
    {
      "type": "Feature",
      "id": "subscriber_12",
      "geometry": {
        "type": "Point",
        "coordinates": [
          69.618533,
          42.298453
        ]
      },
      "properties": {
        "subscriber_id": 12,
        "name": "ТОО \"Дани НАН\"",
        "latitude": 42.298453,
        "longitude": 69.618533,
        "coordinates": "42.298453, 69.618533",
        "tooltip": "ТОО \"Дани НАН\" | Координаты: 42.298453, 69.618533"
      }
    },
    {
      "type": "Feature",
      "id": "subscriber_13",
      "geometry": {
        "type": "Point",
        "coordinates": [
          69.714816,
          42.264099
        ]
      },
      "properties": {
        "subscriber_id": 13,
        "name": "ТОО \"ЕвроКристал\"",
        "latitude": 42.264099,
        "longitude": 69.714816,
        "coordinates": "42.264099, 69.714816",
        "tooltip": "ТОО \"ЕвроКристал\" | Координаты: 42.264099, 69.714816"
      }
    },
    {
      "type": "Feature",
      "id": "subscriber_15",
      "geometry": {
        "type": "Point",
        "coordinates": [
          69.608573,
          42.310079
        ]
      },
      "properties": {
        "subscriber_id": 15,
        "name": "ТОО \"ЗБН ВИЗиТ\"",
        "latitude": 42.310079,
        "longitude": 69.608573,
        "coordinates": "42.310079, 69.608573",
        "tooltip": "ТОО \"ЗБН ВИЗиТ\" | Координаты: 42.310079, 69.608573"
      }
    },
    {
      "type": "Feature",
      "id": "subscriber_5",
      "geometry": {
        "type": "Point",
        "coordinates": [
          69.654501,
          42.268063
        ]
      },
      "properties": {
        "subscriber_id": 5,
        "name": "ТОО \"ПетроКазахстан Ойл Продактс\"",
        "latitude": 42.268063,
        "longitude": 69.654501,
        "coordinates": "42.268063, 69.654501",
        "tooltip": "ТОО \"ПетроКазахстан Ойл Продактс\" | Координаты: 42.268063, 69.654501"
      }
    },
    {
      "type": "Feature",
      "id": "subscriber_10",
      "geometry": {
        "type": "Point",
        "coordinates": [
          69.625178,
          42.29565
        ]
      },
      "properties": {
        "subscriber_id": 10,
        "name": "ТОО \"Рахат Шымкент\"",
        "latitude": 42.29565,
        "longitude": 69.625178,
        "coordinates": "42.295650, 69.625178",
        "tooltip": "ТОО \"Рахат Шымкент\" | Координаты: 42.295650, 69.625178"
      }
    },
    {
      "type": "Feature",
      "id": "subscriber_6",
      "geometry": {
        "type": "Point",
        "coordinates": [
          69.64585,
          42.330334
        ]
      },
      "properties": {
        "subscriber_id": 6,
        "name": "ТОО \"Шымкентский пивоваренный завод\"",
        "latitude": 42.330334,
        "longitude": 69.64585,
        "coordinates": "42.330334, 69.645850",
        "tooltip": "ТОО \"Шымкентский пивоваренный завод\" | Координаты: 42.330334, 69.645850"
      }
    },
    {
      "type": "Feature",
      "id": "subscriber_16",
      "geometry": {
        "type": "Point",
        "coordinates": [
          69.645093,
          42.293844
        ]
      },
      "properties": {
        "subscriber_id": 16,
        "name": "ТОО \"Шымкентцемент\"",
        "latitude": 42.293844,
        "longitude": 69.645093,
        "coordinates": "42.293844, 69.645093",
        "tooltip": "ТОО \"Шымкентцемент\" | Координаты: 42.293844, 69.645093"
      }
    },
    {
      "type": "Feature",
      "id": "subscriber_20",
      "geometry": {
        "type": "Point",
        "coordinates": [
          69.426468,
          42.379242
        ]
      },
      "properties": {
        "subscriber_id": 20,
        "name": "ТОО СП \"Кока Кола Алматы Ботлерс\"",
        "latitude": 42.379242,
        "longitude": 69.426468,
        "coordinates": "42.379242, 69.426468",
        "tooltip": "ТОО СП \"Кока Кола Алматы Ботлерс\" | Координаты: 42.379242, 69.426468"
      }
    },
    {
      "type": "Feature",
      "id": "subscriber_1",
      "geometry": {
        "type": "Point",
        "coordinates": [
          69.722387,
          42.276897
        ]
      },
      "properties": {
        "subscriber_id": 1,
        "name": "ТуранСкин",
        "latitude": 42.276897,
        "longitude": 69.722387,
        "coordinates": "42.276897, 69.722387",
        "tooltip": "ТуранСкин | Координаты: 42.276897, 69.722387"
      }
    }
  ]
}
