{
  "type": "FeatureCollection",
  "name": "Абоненты",
  "features": [
    {
      "type": "Feature",
      "id": "subscriber_2",
      "geometry": {
        "type": "Point",
        "coordinates": [
          69.71598,
          42.277244
        ]
      },
      "properties": {
        "ID абонента": 2,
        "Абонент": "Gasyr Energy",
        "Широта": 42.277244,
        "Долгота": 69.71598
      }
    },
    {
      "type": "Feature",
      "id": "subscriber_4",
      "geometry": {
        "type": "Point",
        "coordinates": [
          69.695822,
          42.273474
        ]
      },
      "properties": {
        "ID абонента": 4,
        "Абонент": "АО \"3-Энергоорталык\"",
        "Широта": 42.273474,
        "Долгота": 69.695822
      }
    },
    {
      "type": "Feature",
      "id": "subscriber_9",
      "geometry": {
        "type": "Point",
        "coordinates": [
          69.578431,
          42.300536
        ]
      },
      "properties": {
        "ID абонента": 9,
        "Абонент": "АО \"Химфарм\"",
        "Широта": 42.300536,
        "Долгота": 69.578431
      }
    },
    {
      "type": "Feature",
      "id": "subscriber_7",
      "geometry": {
        "type": "Point",
        "coordinates": [
          69.597198,
          42.29188
        ]
      },
      "properties": {
        "ID абонента": 7,
        "Абонент": "АО \"Шымкентмай\"",
        "Широта": 42.29188,
        "Долгота": 69.597198
      }
    },
    {
      "type": "Feature",
      "id": "subscriber_3",
      "geometry": {
        "type": "Point",
        "coordinates": [
          69.717378,
          42.277597
        ]
      },
      "properties": {
        "ID абонента": 3,
        "Абонент": "КазЮгПром",
        "Широта": 42.277597,
        "Долгота": 69.717378
      }
    },
    {
      "type": "Feature",
      "id": "subscriber_14",
      "geometry": {
        "type": "Point",
        "coordinates": [
          69.717239,
          42.265469
        ]
      },
      "properties": {
        "ID абонента": 14,
        "Абонент": "ТОО \"Kazalpack\"",
        "Широта": 42.265469,
        "Долгота": 69.717239
      }
    },
    {
      "type": "Feature",
      "id": "subscriber_8",
      "geometry": {
        "type": "Point",
        "coordinates": [
          69.713515,
          42.271536
        ]
      },
      "properties": {
        "ID абонента": 8,
        "Абонент": "ТОО \"Tau Product\"",
        "Широта": 42.271536,
        "Долгота": 69.713515
      }
    },
    {
      "type": "Feature",
      "id": "subscriber_19",
      "geometry": {
        "type": "Point",
        "coordinates": [
          69.669068,
          42.279563
        ]
      },
      "properties": {
        "ID абонента": 19,
        "Абонент": "ТОО \"Акбура 555\"",
        "Широта": 42.279563,
        "Долгота": 69.669068
      }
    },
    {
      "type": "Feature",
      "id": "subscriber_11",
      "geometry": {
        "type": "Point",
        "coordinates": [
          69.622276,
          42.298103
        ]
      },
      "properties": {
        "ID абонента": 11,
        "Абонент": "ТОО \"Алтын Дан\"",
        "Широта": 42.298103,
        "Долгота": 69.622276
      }
    },
    {
      "type": "Feature",
      "id": "subscriber_12",
      "geometry": {
        "type": "Point",
        "coordinates": [
          69.618533,
          42.298453
        ]
      },
      "properties": {
        "ID абонента": 12,
        "Абонент": "ТОО \"Дани НАН\"",
        "Широта": 42.298453,
        "Долгота": 69.618533
      }
    },
    {
      "type": "Feature",
      "id": "subscriber_13",
      "geometry": {
        "type": "Point",
        "coordinates": [
          69.714816,
          42.264099
        ]
      },
      "properties": {
        "ID абонента": 13,
        "Абонент": "ТОО \"ЕвроКристал\"",
        "Широта": 42.264099,
        "Долгота": 69.714816
      }
    },
    {
      "type": "Feature",
      "id": "subscriber_15",
      "geometry": {
        "type": "Point",
        "coordinates": [
          69.608573,
          42.310079
        ]
      },
      "properties": {
        "ID абонента": 15,
        "Абонент": "ТОО \"ЗБН ВИЗиТ\"",
        "Широта": 42.310079,
        "Долгота": 69.608573
      }
    },
    {
      "type": "Feature",
      "id": "subscriber_5",
      "geometry": {
        "type": "Point",
        "coordinates": [
          69.654501,
          42.268063
        ]
      },
      "properties": {
        "ID абонента": 5,
        "Абонент": "ТОО \"ПетроКазахстан Ойл Продактс\"",
        "Широта": 42.268063,
        "Долгота": 69.654501
      }
    },
    {
      "type": "Feature",
      "id": "subscriber_10",
      "geometry": {
        "type": "Point",
        "coordinates": [
          69.625178,
          42.29565
        ]
      },
      "properties": {
        "ID абонента": 10,
        "Абонент": "ТОО \"Рахат Шымкент\"",
        "Широта": 42.29565,
        "Долгота": 69.625178
      }
    },
    {
      "type": "Feature",
      "id": "subscriber_6",
      "geometry": {
        "type": "Point",
        "coordinates": [
          69.64585,
          42.330334
        ]
      },
      "properties": {
        "ID абонента": 6,
        "Абонент": "ТОО \"Шымкентский пивоваренный завод\"",
        "Широта": 42.330334,
        "Долгота": 69.64585
      }
    },
    {
      "type": "Feature",
      "id": "subscriber_1",
      "geometry": {
        "type": "Point",
        "coordinates": [
          69.722387,
          42.276897
        ]
      },
      "properties": {
        "ID абонента": 1,
        "Абонент": "ТуранСкин",
        "Широта": 42.276897,
        "Долгота": 69.722387
      }
    }
  ]
}
